[{"OBJECT_NAME":"STARLINK-36738","OBJECT_ID":"2026-034R","EPOCH":"2026-03-04T04:00:03.000096","MEAN_MOTION":15.80899765,"ECCENTRICITY":4.87e-5,"INCLINATION":53.1593,"RA_OF_ASC_NODE":238.9025,"ARG_OF_PERICENTER":32.3151,"MEAN_ANOMALY":22.7225,"EPHEMERIS_TYPE":0,"CLASSIFICATION_TYPE":"U","NORAD_CAT_ID":67865,"ELEMENT_SET_NO":999,"REV_AT_EPOCH":297,"BSTAR":-0.00037086,"MEAN_MOTION_DOT":-0.00073361,"MEAN_MOTION_DDOT":0},{"OBJECT_NAME":"STARLINK-36780","OBJECT_ID":"2026-034S","EPOCH":"2026-03-04T04:00:03.000096","MEAN_MOTION":15.80854189,"ECCENTRICITY":0.0001359,"INCLINATION":53.1595,"RA_OF_ASC_NODE":238.8924,"ARG_OF_PERICENTER":59.9171,"MEAN_ANOMALY":359.404,"EPHEMERIS_TYPE":0,"CLASSIFICATION_TYPE":"U","NORAD_CAT_ID":67866,"ELEMENT_SET_NO":999,"REV_AT_EPOCH":297,"BSTAR":5.3983e-5,"MEAN_MOTION_DOT":9.958e-5,"MEAN_MOTION_DDOT":0},{"OBJECT_NAME":"STARLINK-36761","OBJECT_ID":"2026-034T","EPOCH":"2026-03-04T04:00:03.000096","MEAN_MOTION":15.80889037,"ECCENTRICITY":4.3e-5,"INCLINATION":53.1593,"RA_OF_ASC_NODE":238.8837,"ARG_OF_PERICENTER":82.3385,"MEAN_ANOMALY":341.2473,"EPHEMERIS_TYPE":0,"CLASSIFICATION_TYPE":"U","NORAD_CAT_ID":67867,"ELEMENT_SET_NO":999,"REV_AT_EPOCH":297,"BSTAR":-0.00030658,"MEAN_MOTION_DOT":-0.00060823,"MEAN_MOTION_DDOT":0},{"OBJECT_NAME":"STARLINK-36762","OBJECT_ID":"2026-034U","EPOCH":"2026-03-04T04:00:03.000096","MEAN_MOTION":15.8086451,"ECCENTRICITY":0.0001377,"INCLINATION":53.1593,"RA_OF_ASC_NODE":238.8751,"ARG_OF_PERICENTER":68.7185,"MEAN_ANOMALY":359.142,"EPHEMERIS_TYPE":0,"CLASSIFICATION_TYPE":"U","NORAD_CAT_ID":67868,"ELEMENT_SET_NO":999,"REV_AT_EPOCH":297,"BSTAR":-0.00013046,"MEAN_MOTION_DOT":-0.00026359,"MEAN_MOTION_DDOT":0},{"OBJECT_NAME":"STARLINK-36779","OBJECT_ID":"2026-034V","EPOCH":"2026-03-04T04:00:03.000096","MEAN_MOTION":15.80890356,"ECCENTRICITY":0.0001551,"INCLINATION":53.1594,"RA_OF_ASC_NODE":238.8657,"ARG_OF_PERICENTER":73.2259,"MEAN_ANOMALY":358.902,"EPHEMERIS_TYPE":0,"CLASSIFICATION_TYPE":"U","NORAD_CAT_ID":67869,"ELEMENT_SET_NO":999,"REV_AT_EPOCH":297,"BSTAR":-0.0002921,"MEAN_MOTION_DOT":-0.00058015,"MEAN_MOTION_DDOT":0},{"OBJECT_NAME":"STARLINK-36770","OBJECT_ID":"2026-034W","EPOCH":"2026-03-04T04:00:03.000096","MEAN_MOTION":15.8089849,"ECCENTRICITY":1.81e-5,"INCLINATION":53.1595,"RA_OF_ASC_NODE":238.8479,"ARG_OF_PERICENTER":51.2826,"MEAN_ANOMALY":29.4039,"EPHEMERIS_TYPE":0,"CLASSIFICATION_TYPE":"U","NORAD_CAT_ID":67870,"ELEMENT_SET_NO":999,"REV_AT_EPOCH":297,"BSTAR":-0.00056096,"MEAN_MOTION_DOT":-0.00110132,"MEAN_MOTION_DDOT":0},{"OBJECT_NAME":"STARLINK-36769","OBJECT_ID":"2026-034X","EPOCH":"2026-03-04T04:00:03.000096","MEAN_MOTION":15.80857826,"ECCENTRICITY":0.0001113,"INCLINATION":53.1596,"RA_OF_ASC_NODE":238.8571,"ARG_OF_PERICENTER":60.0611,"MEAN_ANOMALY":16.3354,"EPHEMERIS_TYPE":0,"CLASSIFICATION_TYPE":"U","NORAD_CAT_ID":67871,"ELEMENT_SET_NO":999,"REV_AT_EPOCH":297,"BSTAR":6.6802e-5,"MEAN_MOTION_DOT":0.00012496,"MEAN_MOTION_DDOT":0},{"OBJECT_NAME":"STARLINK-36786","OBJECT_ID":"2026-034Y","EPOCH":"2026-03-04T04:00:03.000096","MEAN_MOTION":15.80863699,"ECCENTRICITY":7.8e-5,"INCLINATION":53.1594,"RA_OF_ASC_NODE":238.8393,"ARG_OF_PERICENTER":68.2574,"MEAN_ANOMALY":16.682,"EPHEMERIS_TYPE":0,"CLASSIFICATION_TYPE":"U","NORAD_CAT_ID":67872,"ELEMENT_SET_NO":999,"REV_AT_EPOCH":297,"BSTAR":-1.1445e-5,"MEAN_MOTION_DOT":-2.955e-5,"MEAN_MOTION_DDOT":0},{"OBJECT_NAME":"STARLINK-36783","OBJECT_ID":"2026-034Z","EPOCH":"2026-03-04T04:00:03.000096","MEAN_MOTION":15.80863735,"ECCENTRICITY":0.0001173,"INCLINATION":53.1596,"RA_OF_ASC_NODE":238.8296,"ARG_OF_PERICENTER":91.0257,"MEAN_ANOMALY":358.1893,"EPHEMERIS_TYPE":0,"CLASSIFICATION_TYPE":"U","NORAD_CAT_ID":67873,"ELEMENT_SET_NO":999,"REV_AT_EPOCH":297,"BSTAR":-8.0123e-5,"MEAN_MOTION_DOT":-0.00016476,"MEAN_MOTION_DDOT":0},{"OBJECT_NAME":"STARLINK-36730","OBJECT_ID":"2026-034AA","EPOCH":"2026-03-04T04:00:03.000096","MEAN_MOTION":15.80892943,"ECCENTRICITY":0.0001296,"INCLINATION":53.1594,"RA_OF_ASC_NODE":238.8216,"ARG_OF_PERICENTER":67.0009,"MEAN_ANOMALY":26.4854,"EPHEMERIS_TYPE":0,"CLASSIFICATION_TYPE":"U","NORAD_CAT_ID":67874,"ELEMENT_SET_NO":999,"REV_AT_EPOCH":297,"BSTAR":-0.00038343,"MEAN_MOTION_DOT":-0.00075787,"MEAN_MOTION_DDOT":0},{"OBJECT_NAME":"STARLINK-36727","OBJECT_ID":"2026-034AB","EPOCH":"2026-03-04T04:00:03.000096","MEAN_MOTION":15.80766886,"ECCENTRICITY":9.5e-5,"INCLINATION":53.1589,"RA_OF_ASC_NODE":238.8124,"ARG_OF_PERICENTER":81.7608,"MEAN_ANOMALY":16.0207,"EPHEMERIS_TYPE":0,"CLASSIFICATION_TYPE":"U","NORAD_CAT_ID":67875,"ELEMENT_SET_NO":999,"REV_AT_EPOCH":297,"BSTAR":0.00083832,"MEAN_MOTION_DOT":0.00167178,"MEAN_MOTION_DDOT":0},{"OBJECT_NAME":"STARLINK-36743","OBJECT_ID":"2026-034AC","EPOCH":"2026-03-04T04:00:03.000096","MEAN_MOTION":15.80865763,"ECCENTRICITY":0.0001304,"INCLINATION":53.1591,"RA_OF_ASC_NODE":238.8029,"ARG_OF_PERICENTER":117.9314,"MEAN_ANOMALY":344.1048,"EPHEMERIS_TYPE":0,"CLASSIFICATION_TYPE":"U","NORAD_CAT_ID":67876,"ELEMENT_SET_NO":999,"REV_AT_EPOCH":297,"BSTAR":-6.0751e-5,"MEAN_MOTION_DOT":-0.00012668,"MEAN_MOTION_DDOT":0},{"OBJECT_NAME":"STARLINK-36784","OBJECT_ID":"2026-034AD","EPOCH":"2026-03-04T04:00:03.000096","MEAN_MOTION":15.80977043,"ECCENTRICITY":0.0001208,"INCLINATION":53.159,"RA_OF_ASC_NODE":238.7943,"ARG_OF_PERICENTER":84.4608,"MEAN_ANOMALY":21.8633,"EPHEMERIS_TYPE":0,"CLASSIFICATION_TYPE":"U","NORAD_CAT_ID":67877,"ELEMENT_SET_NO":999,"REV_AT_EPOCH":297,"BSTAR":-0.00057199,"MEAN_MOTION_DOT":-0.00112671,"MEAN_MOTION_DDOT":0},{"OBJECT_NAME":"STARLINK-36689","OBJECT_ID":"2026-034AE","EPOCH":"2026-03-04T04:00:03.000096","MEAN_MOTION":15.80867916,"ECCENTRICITY":0.0001386,"INCLINATION":53.159,"RA_OF_ASC_NODE":238.7861,"ARG_OF_PERICENTER":74.0328,"MEAN_ANOMALY":36.5433,"EPHEMERIS_TYPE":0,"CLASSIFICATION_TYPE":"U","NORAD_CAT_ID":67878,"ELEMENT_SET_NO":999,"REV_AT_EPOCH":297,"BSTAR":-0.00017018,"MEAN_MOTION_DOT":-0.00034149,"MEAN_MOTION_DDOT":0},{"OBJECT_NAME":"STARLINK-36818","OBJECT_ID":"2026-035A","EPOCH":"2026-03-04T01:40:18.192864","MEAN_MOTION":15.99698218,"ECCENTRICITY":5.79e-5,"INCLINATION":97.2781,"RA_OF_ASC_NODE":354.9614,"ARG_OF_PERICENTER":112.423,"MEAN_ANOMALY":247.711,"EPHEMERIS_TYPE":0,"CLASSIFICATION_TYPE":"U","NORAD_CAT_ID":67879,"ELEMENT_SET_NO":999,"REV_AT_EPOCH":294,"BSTAR":-0.00046845,"MEAN_MOTION_DOT":-0.00234126,"MEAN_MOTION_DDOT":2.2312e-5},{"OBJECT_NAME":"STARLINK-36821","OBJECT_ID":"2026-035B","EPOCH":"2026-03-04T01:38:45.667104","MEAN_MOTION":15.998969,"ECCENTRICITY":0.0001138,"INCLINATION":97.2775,"RA_OF_ASC_NODE":354.9629,"ARG_OF_PERICENTER":187.2613,"MEAN_ANOMALY":172.865,"EPHEMERIS_TYPE":0,"CLASSIFICATION_TYPE":"U","NORAD_CAT_ID":67880,"ELEMENT_SET_NO":999,"REV_AT_EPOCH":294,"BSTAR":-0.00052561,"MEAN_MOTION_DOT":-0.00265556,"MEAN_MOTION_DDOT":2.7989e-5},{"OBJECT_NAME":"STARLINK-36808","OBJECT_ID":"2026-035C","EPOCH":"2026-03-04T01:39:43.696800","MEAN_MOTION":15.99789349,"ECCENTRICITY":7.27e-5,"INCLINATION":97.2778,"RA_OF_ASC_NODE":354.9618,"ARG_OF_PERICENTER":101.8931,"MEAN_ANOMALY":258.2429,"EPHEMERIS_TYPE":0,"CLASSIFICATION_TYPE":"U","NORAD_CAT_ID":67881,"ELEMENT_SET_NO":999,"REV_AT_EPOCH":294,"BSTAR":-0.00036268,"MEAN_MOTION_DOT":-0.00182379,"MEAN_MOTION_DDOT":1.4538e-5},{"OBJECT_NAME":"STARLINK-36817","OBJECT_ID":"2026-035D","EPOCH":"2026-03-04T01:36:53.761824","MEAN_MOTION":16.00120574,"ECCENTRICITY":4.68e-5,"INCLINATION":97.2769,"RA_OF_ASC_NODE":354.9647,"ARG_OF_PERICENTER":141.1292,"MEAN_ANOMALY":219.0021,"EPHEMERIS_TYPE":0,"CLASSIFICATION_TYPE":"U","NORAD_CAT_ID":67882,"ELEMENT_SET_NO":999,"REV_AT_EPOCH":294,"BSTAR":-0.00040253,"MEAN_MOTION_DOT":-0.00206143,"MEAN_MOTION_DDOT":1.7957e-5},{"OBJECT_NAME":"STARLINK-36856","OBJECT_ID":"2026-035E","EPOCH":"2026-03-04T01:37:45.899040","MEAN_MOTION":16.00017285,"ECCENTRICITY":5.96e-5,"INCLINATION":97.2774,"RA_OF_ASC_NODE":354.9638,"ARG_OF_PERICENTER":163.7887,"MEAN_ANOMALY":196.3411,"EPHEMERIS_TYPE":0,"CLASSIFICATION_TYPE":"U","NORAD_CAT_ID":67883,"ELEMENT_SET_NO":999,"REV_AT_EPOCH":294,"BSTAR":-0.00042141,"MEAN_MOTION_DOT":-0.00214518,"MEAN_MOTION_DDOT":1.9214e-5},{"OBJECT_NAME":"STARLINK-36842","OBJECT_ID":"2026-035F","EPOCH":"2026-03-04T01:36:04.864608","MEAN_MOTION":16.00216572,"ECCENTRICITY":0.000108,"INCLINATION":97.2768,"RA_OF_ASC_NODE":354.9651,"ARG_OF_PERICENTER":198.4087,"MEAN_ANOMALY":161.7153,"EPHEMERIS_TYPE":0,"CLASSIFICATION_TYPE":"U","NORAD_CAT_ID":67884,"ELEMENT_SET_NO":999,"REV_AT_EPOCH":294,"BSTAR":-0.00045914,"MEAN_MOTION_DOT":-0.00236309,"MEAN_MOTION_DDOT":2.2815e-5},{"OBJECT_NAME":"STARLINK-36826","OBJECT_ID":"2026-035G","EPOCH":"2026-03-04T01:35:26.699136","MEAN_MOTION":16.00291911,"ECCENTRICITY":2.1e-5,"INCLINATION":97.2769,"RA_OF_ASC_NODE":354.9661,"ARG_OF_PERICENTER":132.953,"MEAN_ANOMALY":227.1766,"EPHEMERIS_TYPE":0,"CLASSIFICATION_TYPE":"U","NORAD_CAT_ID":67885,"ELEMENT_SET_NO":999,"REV_AT_EPOCH":294,"BSTAR":-0.00046611,"MEAN_MOTION_DOT":-0.0024089,"MEAN_MOTION_DDOT":2.3624e-5},{"OBJECT_NAME":"STARLINK-36390","OBJECT_ID":"2026-035H","EPOCH":"2026-03-04T01:34:26.961312","MEAN_MOTION":16.00395088,"ECCENTRICITY":0.0001083,"INCLINATION":97.2764,"RA_OF_ASC_NODE":354.9664,"ARG_OF_PERICENTER":173.5678,"MEAN_ANOMALY":186.5615,"EPHEMERIS_TYPE":0,"CLASSIFICATION_TYPE":"U","NORAD_CAT_ID":67886,"ELEMENT_SET_NO":999,"REV_AT_EPOCH":294,"BSTAR":-0.00055682,"MEAN_MOTION_DOT":-0.00289297,"MEAN_MOTION_DDOT":3.2865e-5},{"OBJECT_NAME":"STARLINK-36368","OBJECT_ID":"2026-035J","EPOCH":"2026-03-04T01:33:30.662208","MEAN_MOTION":16.00495587,"ECCENTRICITY":0.0001154,"INCLINATION":97.2764,"RA_OF_ASC_NODE":354.9671,"ARG_OF_PERICENTER":186.8799,"MEAN_ANOMALY":173.2464,"EPHEMERIS_TYPE":0,"CLASSIFICATION_TYPE":"U","NORAD_CAT_ID":67887,"ELEMENT_SET_NO":999,"REV_AT_EPOCH":294,"BSTAR":-0.00059443,"MEAN_MOTION_DOT":-0.00310542,"MEAN_MOTION_DDOT":3.7443e-5}]
